HIMAWARI-9
1 41836U 16064A   26186.18169565 -.00000261  00000+0  00000+0 0  9991
2 41836   0.0208 278.6772 0001336 226.6727 343.9982  1.00273443 35390
